CCSDS_OMM_VERS = 2.0
CREATION_DATE  = 
ORIGINATOR     = 

OBJECT_NAME    = STARLINK-35623
OBJECT_ID      = 2025-237AA
CENTER_NAME    = EARTH
REF_FRAME      = TEME
TIME_SYSTEM    = UTC
MEAN_ELEMENT_THEORY = SGP/SGP4

EPOCH          = 2025-11-20T15:42:34.204320
MEAN_MOTION    = 15.49356340
ECCENTRICITY   = .000118
INCLINATION    = 53.1591
RA_OF_ASC_NODE = 191.2631
ARG_OF_PERICENTER = 324.0056
MEAN_ANOMALY   = 36.0873

EPHEMERIS_TYPE = 0
CLASSIFICATION_TYPE = U
NORAD_CAT_ID   = 66138
ELEMENT_SET_NO = 999
REV_AT_EPOCH   = 584
BSTAR          = .10661E-2
MEAN_MOTION_DOT = .59398E-3
MEAN_MOTION_DDOT = 0

CCSDS_OMM_VERS = 2.0
CREATION_DATE  = 
ORIGINATOR     = 

OBJECT_NAME    = STARLINK-35549
OBJECT_ID      = 2025-237AB
CENTER_NAME    = EARTH
REF_FRAME      = TEME
TIME_SYSTEM    = UTC
MEAN_ELEMENT_THEORY = SGP/SGP4

EPOCH          = 2025-11-19T22:39:46.387296
MEAN_MOTION    = 15.49357920
ECCENTRICITY   = .00015307
INCLINATION    = 53.1594
RA_OF_ASC_NODE = 194.6493
ARG_OF_PERICENTER = 100.0977
MEAN_ANOMALY   = 260.0205

EPHEMERIS_TYPE = 0
CLASSIFICATION_TYPE = U
NORAD_CAT_ID   = 66139
ELEMENT_SET_NO = 999
REV_AT_EPOCH   = 573
BSTAR          = .14109538E-2
MEAN_MOTION_DOT = .78957E-3
MEAN_MOTION_DDOT = 0

CCSDS_OMM_VERS = 2.0
CREATION_DATE  = 
ORIGINATOR     = 

OBJECT_NAME    = STARLINK-35625
OBJECT_ID      = 2025-237AC
CENTER_NAME    = EARTH
REF_FRAME      = TEME
TIME_SYSTEM    = UTC
MEAN_ELEMENT_THEORY = SGP/SGP4

EPOCH          = 2025-11-19T08:44:19.420224
MEAN_MOTION    = 15.49156067
ECCENTRICITY   = .00044542
INCLINATION    = 53.1603
RA_OF_ASC_NODE = 197.4281
ARG_OF_PERICENTER = 49.8515
MEAN_ANOMALY   = 310.2884

EPHEMERIS_TYPE = 0
CLASSIFICATION_TYPE = U
NORAD_CAT_ID   = 66140
ELEMENT_SET_NO = 999
REV_AT_EPOCH   = 564
BSTAR          = .15881569E-2
MEAN_MOTION_DOT = .88429E-3
MEAN_MOTION_DDOT = 0

CCSDS_OMM_VERS = 2.0
CREATION_DATE  = 
ORIGINATOR     = 

OBJECT_NAME    = STARLINK-35603
OBJECT_ID      = 2025-237AD
CENTER_NAME    = EARTH
REF_FRAME      = TEME
TIME_SYSTEM    = UTC
MEAN_ELEMENT_THEORY = SGP/SGP4

EPOCH          = 2025-11-19T22:39:16.709760
MEAN_MOTION    = 15.49332604
ECCENTRICITY   = .00016016
INCLINATION    = 53.1589
RA_OF_ASC_NODE = 194.6480
ARG_OF_PERICENTER = 97.9067
MEAN_ANOMALY   = 262.2124

EPHEMERIS_TYPE = 0
CLASSIFICATION_TYPE = U
NORAD_CAT_ID   = 66141
ELEMENT_SET_NO = 999
REV_AT_EPOCH   = 573
BSTAR          = .13043152E-2
MEAN_MOTION_DOT = .72833E-3
MEAN_MOTION_DDOT = 0

CCSDS_OMM_VERS = 2.0
CREATION_DATE  = 
ORIGINATOR     = 

OBJECT_NAME    = TJS-20
OBJECT_ID      = 2025-238A
CENTER_NAME    = EARTH
REF_FRAME      = TEME
TIME_SYSTEM    = UTC
MEAN_ELEMENT_THEORY = SGP/SGP4

EPOCH          = 2025-11-20T19:31:34.516416
MEAN_MOTION    = 1.00269852
ECCENTRICITY   = .0001454
INCLINATION    = 5.9372
RA_OF_ASC_NODE = 300.4151
ARG_OF_PERICENTER = 99.1038
MEAN_ANOMALY   = 15.9442

EPHEMERIS_TYPE = 0
CLASSIFICATION_TYPE = U
NORAD_CAT_ID   = 66142
ELEMENT_SET_NO = 999
REV_AT_EPOCH   = 24
BSTAR          = 0
MEAN_MOTION_DOT = .43E-6
MEAN_MOTION_DDOT = 0

CCSDS_OMM_VERS = 2.0
CREATION_DATE  = 
ORIGINATOR     = 

OBJECT_NAME    = CZ-5 R/B
OBJECT_ID      = 2025-238B
CENTER_NAME    = EARTH
REF_FRAME      = TEME
TIME_SYSTEM    = UTC
MEAN_ELEMENT_THEORY = SGP/SGP4

EPOCH          = 2025-11-20T06:03:54.722880
MEAN_MOTION    = 1.94874041
ECCENTRICITY   = .7587212
INCLINATION    = 16.2669
RA_OF_ASC_NODE = 264.0759
ARG_OF_PERICENTER = 181.4368
MEAN_ANOMALY   = 173.4411

EPHEMERIS_TYPE = 0
CLASSIFICATION_TYPE = U
NORAD_CAT_ID   = 66143
ELEMENT_SET_NO = 999
REV_AT_EPOCH   = 55
BSTAR          = .18127E-2
MEAN_MOTION_DOT = .83097E-3
MEAN_MOTION_DDOT = .15319E-5

CCSDS_OMM_VERS = 2.0
CREATION_DATE  = 
ORIGINATOR     = 

OBJECT_NAME    = SPAINSAT NG II
OBJECT_ID      = 2025-239A
CENTER_NAME    = EARTH
REF_FRAME      = TEME
TIME_SYSTEM    = UTC
MEAN_ELEMENT_THEORY = SGP/SGP4

EPOCH          = 2025-11-17T20:11:51.104544
MEAN_MOTION    = 1.04198281
ECCENTRICITY   = .78696251
INCLINATION    = 19.9038
RA_OF_ASC_NODE = 243.4991
ARG_OF_PERICENTER = 184.0240
MEAN_ANOMALY   = 159.6654

EPHEMERIS_TYPE = 0
CLASSIFICATION_TYPE = U
NORAD_CAT_ID   = 66144
ELEMENT_SET_NO = 999
REV_AT_EPOCH   = 29
BSTAR          = 0
MEAN_MOTION_DOT = -.354E-5
MEAN_MOTION_DDOT = 0

CCSDS_OMM_VERS = 2.0
CREATION_DATE  = 
ORIGINATOR     = 

OBJECT_NAME    = STARLINK-35318
OBJECT_ID      = 2025-240A
CENTER_NAME    = EARTH
REF_FRAME      = TEME
TIME_SYSTEM    = UTC
MEAN_ELEMENT_THEORY = SGP/SGP4

EPOCH          = 2025-11-20T17:19:19.643232
MEAN_MOTION    = 15.39645073
ECCENTRICITY   = .0001276
INCLINATION    = 53.1589
RA_OF_ASC_NODE = 210.4692
ARG_OF_PERICENTER = 91.4638
MEAN_ANOMALY   = 268.6513

EPHEMERIS_TYPE = 0
CLASSIFICATION_TYPE = U
NORAD_CAT_ID   = 66146
ELEMENT_SET_NO = 999
REV_AT_EPOCH   = 533
BSTAR          = .56355E-3
MEAN_MOTION_DOT = .22226E-3
MEAN_MOTION_DDOT = 0

CCSDS_OMM_VERS = 2.0
CREATION_DATE  = 
ORIGINATOR     = 

OBJECT_NAME    = STARLINK-33948
OBJECT_ID      = 2025-240B
CENTER_NAME    = EARTH
REF_FRAME      = TEME
TIME_SYSTEM    = UTC
MEAN_ELEMENT_THEORY = SGP/SGP4

EPOCH          = 2025-11-19T04:57:33.828192
MEAN_MOTION    = 15.49238093
ECCENTRICITY   = .00007298
INCLINATION    = 53.1591
RA_OF_ASC_NODE = 217.3645
ARG_OF_PERICENTER = 92.4248
MEAN_ANOMALY   = 267.6845

EPHEMERIS_TYPE = 0
CLASSIFICATION_TYPE = U
NORAD_CAT_ID   = 66147
ELEMENT_SET_NO = 999
REV_AT_EPOCH   = 510
BSTAR          = -.31761632E-4
MEAN_MOTION_DOT = -.2209E-4
MEAN_MOTION_DDOT = 0

CCSDS_OMM_VERS = 2.0
CREATION_DATE  = 
ORIGINATOR     = 

OBJECT_NAME    = STARLINK-35081
OBJECT_ID      = 2025-240C
CENTER_NAME    = EARTH
REF_FRAME      = TEME
TIME_SYSTEM    = UTC
MEAN_ELEMENT_THEORY = SGP/SGP4

EPOCH          = 2025-11-20T16:23:04.075584
MEAN_MOTION    = 15.50909409
ECCENTRICITY   = .0001344
INCLINATION    = 53.1596
RA_OF_ASC_NODE = 210.2225
ARG_OF_PERICENTER = 132.8696
MEAN_ANOMALY   = 227.2427

EPHEMERIS_TYPE = 0
CLASSIFICATION_TYPE = U
NORAD_CAT_ID   = 66148
ELEMENT_SET_NO = 999
REV_AT_EPOCH   = 528
BSTAR          = -.26467E-2
MEAN_MOTION_DOT = -.153243E-2
MEAN_MOTION_DDOT = 0

CCSDS_OMM_VERS = 2.0
CREATION_DATE  = 
ORIGINATOR     = 

OBJECT_NAME    = STARLINK-35601
OBJECT_ID      = 2025-240D
CENTER_NAME    = EARTH
REF_FRAME      = TEME
TIME_SYSTEM    = UTC
MEAN_ELEMENT_THEORY = SGP/SGP4

EPOCH          = 2025-11-20T20:00:03.000384
MEAN_MOTION    = 15.39616622
ECCENTRICITY   = .0001134
INCLINATION    = 53.1589
RA_OF_ASC_NODE = 209.7825
ARG_OF_PERICENTER = 100.3891
MEAN_ANOMALY   = 239.6341

EPHEMERIS_TYPE = 0
CLASSIFICATION_TYPE = U
NORAD_CAT_ID   = 66149
ELEMENT_SET_NO = 999
REV_AT_EPOCH   = 538
BSTAR          = -.54308E-4
MEAN_MOTION_DOT = -.257E-4
MEAN_MOTION_DDOT = 0

CCSDS_OMM_VERS = 2.0
CREATION_DATE  = 
ORIGINATOR     = 

OBJECT_NAME    = STARLINK-35605
OBJECT_ID      = 2025-240E
CENTER_NAME    = EARTH
REF_FRAME      = TEME
TIME_SYSTEM    = UTC
MEAN_ELEMENT_THEORY = SGP/SGP4

EPOCH          = 2025-11-20T16:32:43.164672
MEAN_MOTION    = 15.48642865
ECCENTRICITY   = .0001284
INCLINATION    = 53.1594
RA_OF_ASC_NODE = 210.2652
ARG_OF_PERICENTER = 80.7762
MEAN_ANOMALY   = 279.3392

EPHEMERIS_TYPE = 0
CLASSIFICATION_TYPE = U
NORAD_CAT_ID   = 66150
ELEMENT_SET_NO = 999
REV_AT_EPOCH   = 528
BSTAR          = -.6756E-2
MEAN_MOTION_DOT = -.351459E-2
MEAN_MOTION_DDOT = 0

