STARLINK-35623          
1 66138U 25237AA  25324.65456255  .00059398  00000+0  10661-2 0  9996
2 66138  53.1591 191.2631 0001180 324.0056  36.0873 15.49356340  5847
STARLINK-35549          
1 66139U 25237AB  25323.94428689  .00078957  00000+0  14110-2 0  9993
2 66139  53.1594 194.6493 0001530 100.0977 260.0205 15.49357920  5738
STARLINK-35625          
1 66140U 25237AC  25323.36411366  .00088429  00000+0  15882-2 0  9997
2 66140  53.1603 197.4281 0004454  49.8515 310.2884 15.49156067  5643
STARLINK-35603          
1 66141U 25237AD  25323.94394340  .00072833  00000+0  13043-2 0  9993
2 66141  53.1589 194.6480 0001601  97.9067 262.2124 15.49332604  5730
TJS-20                  
1 66142U 25238A   25324.81359394  .00000043  00000+0  00000+0 0  9992
2 66142   5.9372 300.4151 0001454  99.1038  15.9442  1.00269852   249
CZ-5 R/B                
1 66143U 25238B   25324.25271670  .00083097  15319-5  18127-2 0  9998
2 66143  16.2669 264.0759 7587212 181.4368 173.4411  1.94874041   557
SPAINSAT NG II          
1 66144U 25239A   25321.84156371 -.00000354  00000+0  00000+0 0  9991
2 66144  19.9038 243.4991 7869625 184.0240 159.6654  1.04198281   298
STARLINK-35318          
1 66146U 25240A   25324.72175513  .00022226  00000+0  56355-3 0  9993
2 66146  53.1589 210.4692 0001276  91.4638 268.6513 15.39645073  5332
STARLINK-33948          
1 66147U 25240B   25323.20664153 -.00002209  00000+0 -31762-4 0  9996
2 66147  53.1591 217.3645 0000729  92.4248 267.6845 15.49238093  5103
STARLINK-35081          
1 66148U 25240C   25324.68268606 -.00153243  00000+0 -26467-2 0  9992
2 66148  53.1596 210.2225 0001344 132.8696 227.2427 15.50909409  5280
STARLINK-35601          
1 66149U 25240D   25324.83336806 -.00002570  00000+0 -54308-4 0  9991
2 66149  53.1589 209.7825 0001134 100.3891 239.6341 15.39616622  5388
STARLINK-35605          
1 66150U 25240E   25324.68938848 -.00351459  00000+0 -67560-2 0  9995
2 66150  53.1594 210.2652 0001284  80.7762 279.3392 15.48642865  5289
